{"type": "FeatureCollection", "features": [ {"type": "Feature", "properties": {"norad_id": 31243, "name": "FENGYUN 1C DEB", "group": "fengyun-1c-debris", "lat": 48.05770649308785, "lon": 9.94728910949147, "alt_km": 901.1710184267495, "timestamp": "2025-12-05T07:38:19.126720+00:00", "meta": {"OBJECT_NAME": "FENGYUN 1C DEB", "OBJECT_ID": "1999-025BLZ", "EPOCH": "2025-12-02T09:26:08.464128", "MEAN_MOTION": 14.07125765, "ECCENTRICITY": 0.00658053, "INCLINATION": 98.7507, "RA_OF_ASC_NODE": 16.9856, "ARG_OF_PERICENTER": 196.9794, "MEAN_ANOMALY": 162.9174, "EPHEMERIS_TYPE": 0, "CLASSIFICATION_TYPE": "U", "NORAD_CAT_ID": 31243, "ELEMENT_SET_NO": 999, "REV_AT_EPOCH": 69162, "BSTAR": 0.0010846711, "MEAN_MOTION_DOT": 1.809e-05, "MEAN_MOTION_DDOT": 0}, "tle": {"line1": "1 31243U 99025BLZ 25336.39315352  .00001809  00000+0  10847-2 0  9997", "line2": "2 31243  98.7507  16.9856 0065805 196.9794 162.9174 14.07125765691627"}}, "geometry": {"type": "Point", "coordinates": [9.94728910949147, 48.05770649308785]}}, {"type": "Feature", "properties": {"norad_id": 31244, "name": "FENGYUN 1C DEB", "group": "fengyun-1c-debris", "lat": 79.24649448068888, "lon": -80.13820025334613, "alt_km": 876.638810516889, "timestamp": "2025-12-05T07:38:19.126730+00:00", "meta": {"OBJECT_NAME": "FENGYUN 1C DEB", "OBJECT_ID": "1999-025BMA", "EPOCH": "2025-11-29T11:08:59.157312", "MEAN_MOTION": 14.06218558, "ECCENTRICITY": 0.01023846, "INCLINATION": 99.0353, "RA_OF_ASC_NODE": 37.1115, "ARG_OF_PERICENTER": 211.8178, "MEAN_ANOMALY": 147.6779, "EPHEMERIS_TYPE": 0, "CLASSIFICATION_TYPE": "U", "NORAD_CAT_ID": 31244, "ELEMENT_SET_NO": 999, "REV_AT_EPOCH": 57453, "BSTAR": 0.00052742349, "MEAN_MOTION_DOT": 8.65e-06, "MEAN_MOTION_DDOT": 0}, "tle": {"line1": "1 31244U 99025BMA 25333.46457358  .00000865  00000+0  52742-3 0  9998", "line2": "2 31244  99.0353  37.1115 0102384 211.8178 147.6779 14.06218558574534"}}, "geometry": {"type": "Point", "coordinates": [-80.13820025334613, 79.24649448068888]}}, {"type": "Feature", "properties": {"norad_id": 31247, "name": "FENGYUN 1C DEB", "group": "fengyun-1c-debris", "lat": 57.23952540869837, "lon": -147.60290876803256, "alt_km": 831.7591556902307, "timestamp": "2025-12-05T07:38:19.126740+00:00", "meta": {"OBJECT_NAME": "FENGYUN 1C DEB", "OBJECT_ID": "1999-025BMD", "EPOCH": "2025-12-04T16:15:04.494240", "MEAN_MOTION": 14.05083415, "ECCENTRICITY": 0.0058704, "INCLINATION": 99.3657, "RA_OF_ASC_NODE": 226.5966, "ARG_OF_PERICENTER": 84.4235, "MEAN_ANOMALY": 333.0455, "EPHEMERIS_TYPE": 0, "CLASSIFICATION_TYPE": "U", "NORAD_CAT_ID": 31247, "ELEMENT_SET_NO": 999, "REV_AT_EPOCH": 95408, "BSTAR": 0.0019039, "MEAN_MOTION_DOT": 3.071e-05, "MEAN_MOTION_DDOT": 0}, "tle": {"line1": "1 31247U 99025BMD 25338.67713535  .00003071  00000+0  19039-2 0  9994", "line2": "2 31247  99.3657 226.5966 0058704  84.4235 333.0455 14.05083415954084"}}, "geometry": {"type": "Point", "coordinates": [-147.60290876803256, 57.23952540869837]}}, {"type": "Feature", "properties": {"norad_id": 31248, "name": "FENGYUN 1C DEB", "group": "fengyun-1c-debris", "lat": -58.7231402562626, "lon": -158.8152524786419, "alt_km": 927.6397914074851, "timestamp": "2025-12-05T07:38:19.126751+00:00", "meta": {"OBJECT_NAME": "FENGYUN 1C DEB", "OBJECT_ID": "1999-025BME", "EPOCH": "2025-12-02T02:45:39.580416", "MEAN_MOTION": 13.92758198, "ECCENTRICITY": 0.0109757, "INCLINATION": 99.2654, "RA_OF_ASC_NODE": 33.5687, "ARG_OF_PERICENTER": 340.39, "MEAN_ANOMALY": 48.6423, "EPHEMERIS_TYPE": 0, "CLASSIFICATION_TYPE": "U", "NORAD_CAT_ID": 31248, "ELEMENT_SET_NO": 999, "REV_AT_EPOCH": 94676, "BSTAR": 0.00064820906, "MEAN_MOTION_DOT": 8.36e-06, "MEAN_MOTION_DDOT": 0}, "tle": {"line1": "1 31248U 99025BME 25336.11504144  .00000836  00000+0  64821-3 0  9992", "line2": "2 31248  99.2654  33.5687 0109757 340.3900  48.6423 13.92758198946767"}}, "geometry": {"type": "Point", "coordinates": [-158.8152524786419, -58.7231402562626]}}, {"type": "Feature", "properties": {"norad_id": 31250, "name": "FENGYUN 1C DEB", "group": "fengyun-1c-debris", "lat": 22.57390404346845, "lon": 13.438515705602816, "alt_km": 975.2424085080347, "timestamp": "2025-12-05T07:38:19.126762+00:00", "meta": {"OBJECT_NAME": "FENGYUN 1C DEB", "OBJECT_ID": "1999-025BMG", "EPOCH": "2025-11-27T20:53:06.321984", "MEAN_MOTION": 14.02996088, "ECCENTRICITY": 0.01342537, "INCLINATION": 98.3888, "RA_OF_ASC_NODE": 183.0534, "ARG_OF_PERICENTER": 339.6638, "MEAN_ANOMALY": 19.9213, "EPHEMERIS_TYPE": 0, "CLASSIFICATION_TYPE": "U", "NORAD_CAT_ID": 31250, "ELEMENT_SET_NO": 999, "REV_AT_EPOCH": 95309, "BSTAR": 0.0013427936, "MEAN_MOTION_DOT": 2.218e-05, "MEAN_MOTION_DDOT": 0}, "tle": {"line1": "1 31250U 99025BMG 25331.87021206  .00002218  00000+0  13428-2 0  9998", "line2": "2 31250  98.3888 183.0534 0134253 339.6638  19.9213 14.02996088953095"}}, "geometry": {"type": "Point", "coordinates": [13.438515705602816, 22.57390404346845]}}, {"type": "Feature", "properties": {"norad_id": 31252, "name": "FENGYUN 1C DEB", "group": "fengyun-1c-debris", "lat": -51.80358416411206, "lon": 9.084431146886681, "alt_km": 821.449583362657, "timestamp": "2025-12-05T07:38:19.126772+00:00", "meta": {"OBJECT_NAME": "FENGYUN 1C DEB", "OBJECT_ID": "1999-025BMJ", "EPOCH": "2025-12-03T19:12:16.624224", "MEAN_MOTION": 14.40130868, "ECCENTRICITY": 0.0213315, "INCLINATION": 98.3178, "RA_OF_ASC_NODE": 356.8928, "ARG_OF_PERICENTER": 199.1553, "MEAN_ANOMALY": 160.1527, "EPHEMERIS_TYPE": 0, "CLASSIFICATION_TYPE": "U", "NORAD_CAT_ID": 31252, "ELEMENT_SET_NO": 999, "REV_AT_EPOCH": 97078, "BSTAR": 0.00079613, "MEAN_MOTION_DOT": 3.239e-05, "MEAN_MOTION_DDOT": 0}, "tle": {"line1": "1 31252U 99025BMJ 25337.80019241  .00003239  00000+0  79613-3 0  9998", "line2": "2 31252  98.3178 356.8928 0213315 199.1553 160.1527 14.40130868970788"}}, "geometry": {"type": "Point", "coordinates": [9.084431146886681, -51.80358416411206]}}, {"type": "Feature", "properties": {"norad_id": 31253, "name": "FENGYUN 1C DEB", "group": "fengyun-1c-debris", "lat": -46.58195547014886, "lon": 54.07025425537676, "alt_km": 1083.867065067795, "timestamp": "2025-12-05T07:38:19.126783+00:00", "meta": {"OBJECT_NAME": "FENGYUN 1C DEB", "OBJECT_ID": "1999-025BMK", "EPOCH": "2025-12-03T09:40:45.297984", "MEAN_MOTION": 14.03577789, "ECCENTRICITY": 0.02905849, "INCLINATION": 99.0777, "RA_OF_ASC_NODE": 42.429, "ARG_OF_PERICENTER": 116.7356, "MEAN_ANOMALY": 246.3862, "EPHEMERIS_TYPE": 0, "CLASSIFICATION_TYPE": "U", "NORAD_CAT_ID": 31253, "ELEMENT_SET_NO": 999, "REV_AT_EPOCH": 68867, "BSTAR": 0.00066608473, "MEAN_MOTION_DOT": 1.476e-05, "MEAN_MOTION_DDOT": 0}, "tle": {"line1": "1 31253U 99025BMK 25337.40330206  .00001476  00000+0  66608-3 0  9993", "line2": "2 31253  99.0777  42.4290 0290584 116.7356 246.3862 14.03577789688670"}}, "geometry": {"type": "Point", "coordinates": [54.07025425537676, -46.58195547014886]}}, {"type": "Feature", "properties": {"norad_id": 31254, "name": "FENGYUN 1C DEB", "group": "fengyun-1c-debris", "lat": -35.16024370659111, "lon": -156.88359968013262, "alt_km": 670.4439314862866, "timestamp": "2025-12-05T07:38:19.126793+00:00", "meta": {"OBJECT_NAME": "FENGYUN 1C DEB", "OBJECT_ID": "1999-025BML", "EPOCH": "2025-11-27T22:14:27.134880", "MEAN_MOTION": 14.36276197, "ECCENTRICITY": 0.0150752, "INCLINATION": 98.4636, "RA_OF_ASC_NODE": 21.8734, "ARG_OF_PERICENTER": 246.3529, "MEAN_ANOMALY": 292.2282, "EPHEMERIS_TYPE": 0, "CLASSIFICATION_TYPE": "U", "NORAD_CAT_ID": 31254, "ELEMENT_SET_NO": 999, "REV_AT_EPOCH": 97303, "BSTAR": 0.00058845, "MEAN_MOTION_DOT": 1.909e-05, "MEAN_MOTION_DDOT": 0}, "tle": {"line1": "1 31254U 99025BML 25331.92670295  .00001909  00000+0  58845-3 0  9995", "line2": "2 31254  98.4636  21.8734 0150752 246.3529 292.2282 14.36276197973034"}}, "geometry": {"type": "Point", "coordinates": [-156.88359968013262, -35.16024370659111]}}, {"type": "Feature", "properties": {"norad_id": 31255, "name": "FENGYUN 1C DEB", "group": "fengyun-1c-debris", "lat": 51.485533421726124, "lon": -11.96797844585835, "alt_km": 959.464723490818, "timestamp": "2025-12-05T07:38:19.126803+00:00", "meta": {"OBJECT_NAME": "FENGYUN 1C DEB", "OBJECT_ID": "1999-025BMM", "EPOCH": "2025-12-04T10:36:33.005088", "MEAN_MOTION": 14.09712066, "ECCENTRICITY": 0.0270999, "INCLINATION": 99.3086, "RA_OF_ASC_NODE": 155.232, "ARG_OF_PERICENTER": 6.6162, "MEAN_ANOMALY": 353.8471, "EPHEMERIS_TYPE": 0, "CLASSIFICATION_TYPE": "U", "NORAD_CAT_ID": 31255, "ELEMENT_SET_NO": 999, "REV_AT_EPOCH": 96684, "BSTAR": 0.00045056, "MEAN_MOTION_DOT": 1.06e-05, "MEAN_MOTION_DDOT": 0}, "tle": {"line1": "1 31255U 99025BMM 25338.44204867  .00001060  00000+0  45056-3 0  9996", "line2": "2 31255  99.3086 155.2320 0270999   6.6162 353.8471 14.09712066966848"}}, "geometry": {"type": "Point", "coordinates": [-11.96797844585835, 51.485533421726124]}}, {"type": "Feature", "properties": {"norad_id": 31256, "name": "FENGYUN 1C DEB", "group": "fengyun-1c-debris", "lat": 10.0955515909424, "lon": 8.863194762594715, "alt_km": 698.37421663857, "timestamp": "2025-12-05T07:38:19.126813+00:00", "meta": {"OBJECT_NAME": "FENGYUN 1C DEB", "OBJECT_ID": "1999-025BMN", "EPOCH": "2025-12-03T08:38:37.232160", "MEAN_MOTION": 14.03080392, "ECCENTRICITY": 0.03081552, "INCLINATION": 98.6841, "RA_OF_ASC_NODE": 185.432, "ARG_OF_PERICENTER": 140.4727, "MEAN_ANOMALY": 221.936, "EPHEMERIS_TYPE": 0, "CLASSIFICATION_TYPE": "U", "NORAD_CAT_ID": 31256, "ELEMENT_SET_NO": 999, "REV_AT_EPOCH": 64850, "BSTAR": 0.0040356477, "MEAN_MOTION_DOT": 9.524e-05, "MEAN_MOTION_DDOT": 0}, "tle": {"line1": "1 31256U 99025BMN 25337.36015315  .00009524  00000+0  40356-2 0  9995", "line2": "2 31256  98.6841 185.4320 0308155 140.4727 221.9360 14.03080392648501"}}, "geometry": {"type": "Point", "coordinates": [8.863194762594715, 10.0955515909424]}}]}